OBJECT_NAME,OBJECT_ID,EPOCH,MEAN_MOTION,ECCENTRICITY,INCLINATION,RA_OF_ASC_NODE,ARG_OF_PERICENTER,MEAN_ANOMALY,EPHEMERIS_TYPE,CLASSIFICATION_TYPE,NORAD_CAT_ID,ELEMENT_SET_NO,REV_AT_EPOCH,BSTAR,MEAN_MOTION_DOT,MEAN_MOTION_DDOT
STARLINK-6037,2023-064P,2026-06-16T23:40:22.488096,14.98330542,.0003573,69.9992,253.9325,269.5907,90.4843,0,U,56461,999,17012,.46276E-4,.459E-5,0
STARLINK-6045,2023-064Q,2026-06-16T20:57:42.796800,14.98330243,.0003727,69.9985,214.1702,268.9331,91.1401,0,U,56462,999,17109,.37437E-4,.354E-5,0
STARLINK-6051,2023-064R,2026-06-16T23:04:20.583840,14.98337958,.0003314,69.9989,254.2388,267.7686,92.3094,0,U,56463,999,17011,-.66081E-4,-.882E-5,0
STARLINK-6043,2023-064S,2026-06-16T15:57:43.904736,14.98333239,.0003416,69.9992,254.8183,269.6449,90.4319,0,U,56464,999,17007,.61587E-4,.642E-5,0
STARLINK-6054,2023-064T,2026-06-16T13:08:49.513056,14.98334434,.0003564,69.9988,215.0365,264.2272,95.8480,0,U,56465,999,17104,-.43073E-4,-.607E-5,0
STARLINK-6053,2023-064U,2026-06-16T15:45:42.699744,14.98331712,.0003461,69.9994,254.7890,269.1731,90.9032,0,U,56466,999,17006,.55099E-4,.564E-5,0
STARLINK-6055,2023-064V,2026-06-16T14:39:18.749088,14.98329442,.0003476,69.9985,235.1607,267.6897,92.3864,0,U,56467,999,17055,.18574E-4,.129E-5,0
STARLINK-5998,2023-064W,2026-06-16T23:34:21.794016,14.98330444,.0003498,69.9987,253.9162,269.1926,90.8832,0,U,56468,999,17012,.29805E-4,.263E-5,0
STARLINK-5518,2023-064X,2026-06-16T21:21:52.809120,14.98330937,.0003374,69.9986,234.5307,269.2722,90.8050,0,U,56469,999,17059,.18029E-4,.122E-5,0
STARLINK-5523,2023-064Y,2026-06-16T21:09:51.678432,14.98331811,.0003199,69.9985,234.5015,268.3800,91.6993,0,U,56470,999,17059,.15497E-4,.92E-6,0
STARLINK-5521,2023-064Z,2026-06-16T14:33:15.418080,14.98373100,.0002996,69.9985,235.1450,274.1828,85.8988,0,U,56471,999,17055,.49349E-3,.5807E-4,0
STARLINK-5038,2023-064AA,2026-06-16T22:21:57.051648,14.98330101,.0003434,69.9983,234.2757,268.4210,91.6555,0,U,56472,999,17060,.22473E-4,.175E-5,0
STARLINK-5524,2023-064AC,2026-06-16T21:15:52.210944,14.98330055,.0003555,69.9985,234.5162,269.7608,90.3143,0,U,56474,999,17059,.13676E-4,.7E-6,0
STARLINK-5541,2023-064AD,2026-06-16T22:15:56.502720,14.98331760,.0003436,69.9980,234.2569,269.6085,90.4681,0,U,56475,999,17060,.33136E-4,.302E-5,0
STARLINK-5545,2023-064AE,2026-06-16T14:27:17.431776,14.98330474,.0003354,69.9984,235.1302,269.3303,90.7471,0,U,56476,999,17055,.45685E-4,.452E-5,0
STARLINK-5534,2023-064AF,2026-06-16T21:52:08.067072,14.98330579,.0003499,69.9985,234.2006,269.2090,90.8668,0,U,56477,999,17060,.18421E-4,.127E-5,0
STARLINK-6041,2023-064AG,2026-06-16T22:09:55.802592,14.98329407,.0003451,69.9984,234.2445,268.4788,91.5975,0,U,56478,999,17060,.18611E-4,.129E-5,0
STARLINK-6044,2023-064AH,2026-06-16T21:33:51.791040,14.98330910,.0003327,69.9987,234.1555,269.6139,90.4639,0,U,56479,999,17060,.17722E-4,.118E-5,0
STARLINK-6214,2023-064AJ,2026-06-17T02:29:39.139872,15.36728733,.000419,69.9895,189.6980,281.1588,78.9119,0,U,56480,999,17173,.20571E-3,.7272E-4,0
STARLINK-6222,2023-064AK,2026-06-16T21:45:53.049600,14.98331606,.0003249,69.9987,234.1848,269.4995,90.5791,0,U,56481,999,17060,.35025E-4,.325E-5,0
STARLINK-6220,2023-064AL,2026-06-16T22:03:55.065312,14.98331532,.0003354,69.9985,234.2295,273.9624,86.1151,0,U,56482,999,17060,-.15761E-4,-.281E-5,0
STARLINK-5868,2023-064AM,2026-06-16T21:57:54.423072,14.98333883,.0003447,69.9986,234.2110,269.6625,90.4139,0,U,56483,999,17060,-.50689E-4,-.698E-5,0
STARLINK-6221,2023-064AN,2026-06-16T21:51:53.828352,14.98330165,.0003401,69.9986,234.1999,268.7851,91.2919,0,U,56484,999,17059,.2376E-4,.19E-5,0
STARLINK-6210,2023-064AP,2026-06-16T21:27:51.181632,14.98330031,.0003392,69.9985,234.1403,270.1002,89.9768,0,U,56485,999,17060,.68852E-5,-.11E-6,0
STARLINK-6196,2023-064AR,2026-06-16T21:03:29.753280,14.98338519,.0002969,69.9985,214.2163,262.4317,97.6505,0,U,56487,999,17109,.59181E-4,.613E-5,0
STARLINK-6204,2023-064AS,2026-06-16T20:27:27.010944,14.98345641,.0003459,69.9992,214.5285,269.1556,90.9207,0,U,56488,999,17108,.16058E-3,.1824E-4,0
STARLINK-5923,2023-064AT,2026-06-16T20:09:27.234720,14.98323361,.0003746,69.9983,214.4822,265.8090,94.2641,0,U,56489,999,17108,.39945E-4,.383E-5,0
STARLINK-5873,2023-064AU,2026-06-16T20:39:29.051424,14.98330369,.0003497,69.9986,214.5549,268.6757,91.4001,0,U,56490,999,17108,.19871E-4,.144E-5,0
STARLINK-5842,2023-064AV,2026-06-16T20:03:24.967296,14.98367396,.0002715,70.0014,214.4676,273.8539,86.2310,0,U,56491,999,17108,-.10703E-2,-.12853E-3,0
STARLINK-5846,2023-064AW,2026-06-16T19:57:24.549696,14.98329905,.0003396,69.9987,214.4530,268.7118,91.3652,0,U,56492,999,17108,-.1426E-5,-.11E-5,0
