STARLINK-6037           
1 56461U 23064P   26167.98637139  .00000459  00000+0  46276-4 0  9991
2 56461  69.9992 253.9325 0003573 269.5907  90.4843 14.98330542170121
STARLINK-6045           
1 56462U 23064Q   26167.87341200  .00000354  00000+0  37437-4 0  9994
2 56462  69.9985 214.1702 0003727 268.9331  91.1401 14.98330243171090
STARLINK-6051           
1 56463U 23064R   26167.96134935 -.00000882  00000+0 -66081-4 0  9995
2 56463  69.9989 254.2388 0003314 267.7686  92.3094 14.98337958170115
STARLINK-6043           
1 56464U 23064S   26167.66509149  .00000642  00000+0  61587-4 0  9994
2 56464  69.9992 254.8183 0003416 269.6449  90.4319 14.98333239170072
STARLINK-6054           
1 56465U 23064T   26167.54779529 -.00000607  00000+0 -43073-4 0  9996
2 56465  69.9988 215.0365 0003564 264.2272  95.8480 14.98334434171042
STARLINK-6053           
1 56466U 23064U   26167.65674421  .00000564  00000+0  55099-4 0  9995
2 56466  69.9994 254.7890 0003461 269.1731  90.9032 14.98331712170069
STARLINK-6055           
1 56467U 23064V   26167.61063367  .00000129  00000+0  18574-4 0  9997
2 56467  69.9985 235.1607 0003476 267.6897  92.3864 14.98329442170551
STARLINK-5998           
1 56468U 23064W   26167.98219669  .00000263  00000+0  29805-4 0  9994
2 56468  69.9987 253.9162 0003498 269.1926  90.8832 14.98330444170127
STARLINK-5518           
1 56469U 23064X   26167.89019455  .00000122  00000+0  18029-4 0  9996
2 56469  69.9986 234.5307 0003374 269.2722  90.8050 14.98330937170591
STARLINK-5523           
1 56470U 23064Y   26167.88184813  .00000092  00000+0  15497-4 0  9990
2 56470  69.9985 234.5015 0003199 268.3800  91.6993 14.98331811170597
STARLINK-5521           
1 56471U 23064Z   26167.60642845  .00005807  00000+0  49349-3 0  9996
2 56471  69.9985 235.1450 0002996 274.1828  85.8988 14.98373100170559
STARLINK-5038           
1 56472U 23064AA  26167.93191032  .00000175  00000+0  22473-4 0  9993
2 56472  69.9983 234.2757 0003434 268.4210  91.6555 14.98330101170602
STARLINK-5524           
1 56474U 23064AC  26167.88602096  .00000070  00000+0  13676-4 0  9995
2 56474  69.9985 234.5162 0003555 269.7608  90.3143 14.98330055170593
STARLINK-5541           
1 56475U 23064AD  26167.92773730  .00000302  00000+0  33136-4 0  9996
2 56475  69.9980 234.2569 0003436 269.6085  90.4681 14.98331760170607
STARLINK-5545           
1 56476U 23064AE  26167.60228509  .00000452  00000+0  45685-4 0  9999
2 56476  69.9984 235.1302 0003354 269.3303  90.7471 14.98330474170551
STARLINK-5534           
1 56477U 23064AF  26167.91120448  .00000127  00000+0  18421-4 0  9994
2 56477  69.9985 234.2006 0003499 269.2090  90.8668 14.98330579170607
STARLINK-6041           
1 56478U 23064AG  26167.92356253  .00000129  00000+0  18611-4 0  9994
2 56478  69.9984 234.2445 0003451 268.4788  91.5975 14.98329407170604
STARLINK-6044           
1 56479U 23064AH  26167.89851610  .00000118  00000+0  17722-4 0  9998
2 56479  69.9987 234.1555 0003327 269.6139  90.4639 14.98330910170600
STARLINK-6214           
1 56480U 23064AJ  26168.10392523  .00007272  00000+0  20571-3 0  9991
2 56480  69.9895 189.6980 0004190 281.1588  78.9119 15.36728733171738
STARLINK-6222           
1 56481U 23064AK  26167.90686400  .00000325  00000+0  35025-4 0  9992
2 56481  69.9987 234.1848 0003249 269.4995  90.5791 14.98331606170602
STARLINK-6220           
1 56482U 23064AL  26167.91938733 -.00000281  00000+0 -15761-4 0  9991
2 56482  69.9985 234.2295 0003354 273.9624  86.1151 14.98331532170603
STARLINK-5868           
1 56483U 23064AM  26167.91521323 -.00000698  00000+0 -50689-4 0  9995
2 56483  69.9986 234.2110 0003447 269.6625  90.4139 14.98333883170602
STARLINK-6221           
1 56484U 23064AN  26167.91103968  .00000190  00000+0  23760-4 0  9992
2 56484  69.9986 234.1999 0003401 268.7851  91.2919 14.98330165170591
STARLINK-6210           
1 56485U 23064AP  26167.89434238 -.00000011  00000+0  68852-5 0  9992
2 56485  69.9985 234.1403 0003392 270.1002  89.9768 14.98330031170605
STARLINK-6196           
1 56487U 23064AR  26167.87742770  .00000613  00000+0  59181-4 0  9996
2 56487  69.9985 214.2163 0002969 262.4317  97.6505 14.98338519171099
STARLINK-6204           
1 56488U 23064AS  26167.85239596  .00001824  00000+0  16058-3 0  9992
2 56488  69.9992 214.5285 0003459 269.1556  90.9207 14.98345641171088
STARLINK-5923           
1 56489U 23064AT  26167.83989855  .00000383  00000+0  39945-4 0  9991
2 56489  69.9983 214.4822 0003746 265.8090  94.2641 14.98323361171084
STARLINK-5873           
1 56490U 23064AU  26167.86075291  .00000144  00000+0  19871-4 0  9997
2 56490  69.9986 214.5549 0003497 268.6757  91.4001 14.98330369171085
STARLINK-5842           
1 56491U 23064AV  26167.83570564 -.00012853  00000+0 -10703-2 0  9993
2 56491  70.0014 214.4676 0002715 273.8539  86.2310 14.98367396171084
STARLINK-5846           
1 56492U 23064AW  26167.83153414 -.00000110  00000+0 -14260-5 0  9993
2 56492  69.9987 214.4530 0003396 268.7118  91.3652 14.98329905171082
